IRIDIUM 63              
1 25286U 98021B   25347.32359352  .00000596  00000+0  19555-3 0  9993
2 25286  86.3984   6.9695 0002404  88.8007 271.3466 14.36736446449560
IRIDIUM 69              
1 25319U 98026A   25347.33979773  .00000760  00000+0  22940-3 0  9996
2 25319  86.3978  19.6850 0004020 123.8216 236.3367 14.41218566448869
IRIDIUM 71              
1 25320U 98026B   25347.32652853  .00000451  00000+0  13322-3 0  9995
2 25320  86.3977  14.3631 0002021 151.7324 208.3986 14.41318544449390
IRIDIUM 73              
1 25344U 98032C   25347.19234751  .00001040  00000+0  25262-3 0  9997
2 25344  86.4406 330.7965 0002951  93.6190 266.5353 14.51990848456538
IRIDIUM 82              
1 25467U 98051A   25347.16549792  .00055866  00000+0  10369-2 0  9991
2 25467  86.3615  20.8944 0060250 333.5949  26.2241 15.46687389451465
